EPOCH,NORAD_CAT_ID,MEAN_MOTION,ECCENTRICITY,INCLINATION,RA_OF_ASC_NODE,ARG_OF_PERICENTER,MEAN_ANOMALY,MEAN_MOTION_DOT,BSTAR,TLE_LINE1,TLE_LINE2
2023-02-06 15:30:40,50803,15.08842432,0.0001161,53.2151,188.6213,83.9611,276.1513,0.0000072,0.000063334,1 50803U 22001A   23037.64630502  .00000720  00000-0  63334-4 0  9994,2 50803  53.2151 188.6213 0001161  83.9611 276.1513 15.08842432 60267
2023-02-07 02:38:22,50803,15.08846892,0.0001147,53.2149,186.5395,103.3239,256.7881,0.00000721,0.000063352,1 50803U 22001A   23038.10998077  .00000721  00000-0  63352-4 0  9991,2 50803  53.2149 186.5395 0001147 103.3239 256.7881 15.08846892 61604
2023-02-07 13:46:04,50803,15.08833288,0.0001132,53.2151,184.4581,94.4609,265.6512,0.00002694,0.00018732,1 50803U 22001A   23038.57366854  .00002694  00000-0  18732-3 0  9996,2 50803  53.2151 184.4581 0001132  94.4609 265.6512 15.08833288 60408
2023-02-07 16:56:50,50803,15.08846741,0.0001097,53.215,183.8638,91.5713,268.5405,0.00002751,0.00019083,1 50803U 22001A   23038.70613992  .00002751  00000-0  19083-3 0  9993,2 50803  53.2150 183.8638 0001097  91.5713 268.5405 15.08846741 60420
2023-02-08 10:26:05,50803,15.0883109,0.0001084,53.2142,180.5931,89.9522,270.1595,-0.00001951,-0.00010453,1 50803U 22001A   23039.43478757 -.00001951  00000-0 -10453-3 0  9997,2 50803  53.2142 180.5931 0001084  89.9522 270.1595 15.08831090 61809
2023-02-08 13:36:51,50803,15.08838633,0.0001465,53.2159,179.9977,81.5677,278.5481,-0.00000068,0.000013837,1 50803U 22001A   23039.56726522 -.00000068  00000-0  13837-4 0  9994,2 50803  53.2159 179.9977 0001465  81.5677 278.5481 15.08838633 60558
2023-02-08 16:47:37,50803,15.08845368,0.0001264,53.2149,179.4021,82.6688,277.4448,0.00000563,0.000053458,1 50803U 22001A   23039.69974162  .00000563  00000-0  53458-4 0  9995,2 50803  53.2149 179.4021 0001264  82.6688 277.4448 15.08845368 60579
2023-02-08 16:47:37,50803,15.08845368,0.0001264,53.2149,179.4021,82.6688,277.4448,0.00000563,0.000053458,1 50803U 22001A   23039.69974162  .00000563  00000-0  53458-4 0  9995,2 50803  53.2149 179.4021 0001264  82.6688 277.4448 15.08845368 61840
2023-02-09 02:19:56,50803,15.08838665,0.0001365,53.216,177.6188,89.9448,270.17,-0.0000018,0.000006792,1 50803U 22001A   23040.09718569 -.00000180  00000-0  67920-5 0  9994,2 50803  53.2160 177.6188 0001365  89.9448 270.1700 15.08838665 61903
2023-02-09 08:41:29,50803,15.08833842,0.0001234,53.2149,176.4309,91.6206,268.4927,-0.00000418,-0.000008202,1 50803U 22001A   23040.36214857 -.00000418  00000-0 -82020-5 0  9998,2 50803  53.2149 176.4309 0001234  91.6206 268.4927 15.08833842 60675
2023-02-09 16:38:24,50803,15.08847647,0.0001302,53.2152,174.9422,74.666,285.4476,0.00001208,0.000093979,1 50803U 22001A   23040.69334275  .00001208  00000-0  93979-4 0  9991,2 50803  53.2152 174.9422 0001302  74.6660 285.4476 15.08847647 60721
2023-02-09 16:38:24,50803,15.08847647,0.0001302,53.2152,174.9422,74.666,285.4476,0.00001208,0.000093979,1 50803U 22001A   23040.69334275  .00001208  00000-0  93979-4 0  9991,2 50803  53.2152 174.9422 0001302  74.6660 285.4476 15.08847647 61991
2023-02-10 02:10:43,50803,15.08844841,0.0001141,53.2146,173.158,94.6943,265.4179,0.00000461,0.000047068,1 50803U 22001A   23041.09078324  .00000461  00000-0  47068-4 0  9994,2 50803  53.2146 173.1580 0001141  94.6943 265.4179 15.08844841 60784
2023-02-10 10:07:40,50803,15.08832077,0.0001287,53.215,171.6707,92.7985,267.3154,0.00001352,0.00010304,1 50803U 22001A   23041.42199178  .00001352  00000-0  10304-3 0  9994,2 50803  53.2150 171.6707 0001287  92.7985 267.3154 15.08832077 62109
2023-02-10 14:53:48,50803,15.0884838,0.0001507,53.2165,170.7793,65.6002,294.5148,0.00001971,0.00014185,1 50803U 22001A   23041.62070249  .00001971  00000-0  14185-3 0  9991,2 50803  53.2165 170.7793 0001507  65.6002 294.5148 15.08848380 62136
2023-02-10 14:53:48,50803,15.0884838,0.0001507,53.2165,170.7793,65.6002,294.5148,0.00001971,0.00014185,1 50803U 22001A   23041.62070249  .00001971  00000-0  14185-3 0  9991,2 50803  53.2165 170.7793 0001507  65.6002 294.5148 15.08848380 60864
2023-02-11 09:58:27,50803,15.08826966,0.0001262,53.2152,167.2094,119.4643,240.6475,0.00001526,0.00011399,1 50803U 22001A   23042.41559588  .00001526  00000-0  11399-3 0  9997,2 50803  53.2152 167.2094 0001262 119.4643 240.6475 15.08826966 62258
2023-02-11 11:33:50,50803,15.08832391,0.0001536,53.2152,166.9129,106.6916,253.4245,0.00000766,0.000066202,1 50803U 22001A   23042.48183575  .00000766  00000-0  66202-4 0  9992,2 50803  53.2152 166.9129 0001536 106.6916 253.4245 15.08832391 60993
2023-02-11 17:55:22,50803,15.08848022,0.0001295,53.2142,165.7244,88.942,271.172,0.00002998,0.00020631,1 50803U 22001A   23042.74678672  .00002998  00000-0  20631-3 0  9992,2 50803  53.2142 165.7244 0001295  88.9420 271.1720 15.08848022 62301
2023-02-11 17:55:22,50803,15.08848022,0.0001295,53.2142,165.7244,88.942,271.172,0.00002998,0.00020631,1 50803U 22001A   23042.74678672  .00002998  00000-0  20631-3 0  9992,2 50803  53.2142 165.7244 0001295  88.9420 271.1720 15.08848022 61030
2023-02-12 09:49:13,50803,15.08840945,0.0001512,53.2135,162.7475,114.6177,245.4972,0.0000202,0.00014497,1 50803U 22001A   23043.40918930  .00002020  00000-0  14497-3 0  9999,2 50803  53.2135 162.7475 0001512 114.6177 245.4972 15.08840945 62404
2023-02-12 09:49:13,50803,15.08840945,0.0001512,53.2135,162.7475,114.6177,245.4972,0.0000202,0.00014497,1 50803U 22001A   23043.40918930  .00002020  00000-0  14497-3 0  9999,2 50803  53.2135 162.7475 0001512 114.6177 245.4972 15.08840945 61133
2023-02-13 09:40:01,50803,15.08826445,0.0001442,53.2154,158.2899,118.4939,241.6198,0.00001626,0.00012029,1 50803U 22001A   23044.40279902  .00001626  00000-0  12029-3 0  9999,2 50803  53.2154 158.2899 0001442 118.4939 241.6198 15.08826445 62558
2023-02-13 14:26:11,50803,15.08829552,0.0001035,53.2161,157.3986,106.9752,253.1353,0.00002454,0.00017227,1 50803U 22001A   23044.60151776  .00002454  00000-0  17227-3 0  9994,2 50803  53.2161 157.3986 0001035 106.9752 253.1353 15.08829552 61312
2023-02-13 23:58:29,50803,15.08844778,0.0001114,53.2161,155.6138,100.481,259.6308,-0.00000487,-0.000012533,1 50803U 22001A   23044.99895018 -.00000487  00000-0 -12533-4 0  9992,2 50803  53.2161 155.6138 0001114 100.4810 259.6308 15.08844778 62649
2023-02-14 09:30:49,50803,15.08828796,0.0001158,53.2152,153.8292,98.4052,261.7071,-0.00001027,-0.000046446,1 50803U 22001A   23045.39640392 -.00001027  00000-0 -46446-4 0  9991,2 50803  53.2152 153.8292 0001158  98.4052 261.7071 15.08828796 62702
2023-02-14 14:16:58,50803,15.08832948,0.0000524,53.2164,152.941,67.9572,292.1476,-0.00000615,-0.000020581,1 50803U 22001A   23045.59512036 -.00000615  00000-0 -20581-4 0  9990,2 50803  53.2164 152.9410 0000524  67.9572 292.1476 15.08832948 61464
2023-02-14 15:52:20,50803,15.08854034,0.0001155,53.216,152.639,76.2682,283.8438,0.00000138,0.000026752,1 50803U 22001A   23045.66134585  .00000138  00000-0  26752-4 0  9991,2 50803  53.2160 152.6390 0001155  76.2682 283.8438 15.08854034 62747
2023-02-14 15:52:20,50803,15.08854034,0.0001155,53.216,152.639,76.2682,283.8438,0.00000138,0.000026752,1 50803U 22001A   23045.66134585  .00000138  00000-0  26752-4 0  9991,2 50803  53.2160 152.6390 0001155  76.2682 283.8438 15.08854034 61476
2023-02-14 23:49:16,50803,15.08847118,0.0000871,53.2155,151.1543,100.9327,259.1763,-0.00000847,-0.000035139,1 50803U 22001A   23045.99254996 -.00000847  00000-0 -35139-4 0  9994,2 50803  53.2155 151.1543 0000871 100.9327 259.1763 15.08847118 62797
2023-02-15 10:56:59,50803,15.08829327,0.0000903,53.216,149.0716,116.8962,243.2122,0.0000183,0.00013309,1 50803U 22001A   23046.45624095  .00001830  00000-0  13309-3 0  9992,2 50803  53.2160 149.0716 0000903 116.8962 243.2122 15.08829327 62861
2023-02-15 12:32:21,50803,15.08845412,0.0001071,53.2157,148.7731,99.3512,260.7601,0.00003957,0.00026649,1 50803U 22001A   23046.52246874  .00003957  00000-0  26649-3 0  9998,2 50803  53.2157 148.7731 0001071  99.3512 260.7601 15.08845412 61603
2023-02-15 15:43:06,50803,15.08853397,0.0001193,53.2155,148.1771,112.4751,247.6367,0.00004514,0.0003014,1 50803U 22001A   23046.65494162  .00004514  00000-0  30140-3 0  9998,2 50803  53.2155 148.1771 0001193 112.4751 247.6367 15.08853397 62892
2023-02-15 15:43:06,50803,15.08853397,0.0001193,53.2155,148.1771,112.4751,247.6367,0.00004514,0.0003014,1 50803U 22001A   23046.65494162  .00004514  00000-0  30140-3 0  9998,2 50803  53.2155 148.1771 0001193 112.4751 247.6367 15.08853397 61622
2023-02-16 10:47:45,50803,15.08841738,0.0000905,53.2151,144.6106,99.1757,260.9338,0.00002708,0.00018815,1 50803U 22001A   23047.44983046  .00002708  00000-0  18815-3 0  9998,2 50803  53.2151 144.6106 0000905  99.1757 260.9338 15.08841738 63015
2023-02-16 12:23:08,50803,15.08854267,0.0000926,53.2146,144.3134,103.5543,256.5552,0.00001104,0.0000874,1 50803U 22001A   23047.51606510  .00001104  00000-0  87400-4 0  9990,2 50803  53.2146 144.3134 0000926 103.5543 256.5552 15.08854267 61752
2023-02-16 15:33:53,50803,15.0886424,0.0001055,53.2142,143.7182,113.0205,247.0898,0.0000248,0.00017372,1 50803U 22001A   23047.64853537  .00002480  00000-0  17372-3 0  9995,2 50803  53.2142 143.7182 0001055 113.0205 247.0898 15.08864240 63043
2023-02-16 15:33:53,50803,15.0886424,0.0001055,53.2142,143.7182,113.0205,247.0898,0.0000248,0.00017372,1 50803U 22001A   23047.64853537  .00002480  00000-0  17372-3 0  9995,2 50803  53.2142 143.7182 0001055 113.0205 247.0898 15.08864240 61771
2023-02-17 12:13:56,50803,15.08818823,0.0000835,53.215,139.8542,66.6773,293.4307,-0.00003305,-0.0001898,1 50803U 22001A   23048.50968662 -.00003305  00000-0 -18980-3 0  9992,2 50803  53.2150 139.8542 0000835  66.6773 293.4307 15.08818823 63176
2023-02-17 12:13:56,50803,15.08818823,0.0000835,53.215,139.8542,66.6773,293.4307,-0.00003305,-0.0001898,1 50803U 22001A   23048.50968662 -.00003305  00000-0 -18980-3 0  9992,2 50803  53.2150 139.8542 0000835  66.6773 293.4307 15.08818823 61905
